[{"OBJECT_NAME":"STARLINK-35017","OBJECT_ID":"2025-184V","EPOCH":"2026-03-09T16:25:05.764800","MEAN_MOTION":15.0564487,"ECCENTRICITY":7.566e-5,"INCLINATION":97.6034,"RA_OF_ASC_NODE":122.71,"ARG_OF_PERICENTER":106.689,"MEAN_ANOMALY":253.4419,"EPHEMERIS_TYPE":0,"CLASSIFICATION_TYPE":"U","NORAD_CAT_ID":65292,"ELEMENT_SET_NO":999,"REV_AT_EPOCH":3125,"BSTAR":0.00022122538,"MEAN_MOTION_DOT":3.132e-5,"MEAN_MOTION_DDOT":0},{"OBJECT_NAME":"IRIDIUM 33 DEB","OBJECT_ID":"1997-051QE","EPOCH":"2026-03-07T09:35:18.798432","MEAN_MOTION":15.07266806,"ECCENTRICITY":0.0013423,"INCLINATION":86.3519,"RA_OF_ASC_NODE":312.8742,"ARG_OF_PERICENTER":171.2899,"MEAN_ANOMALY":188.8573,"EPHEMERIS_TYPE":0,"CLASSIFICATION_TYPE":"U","NORAD_CAT_ID":35484,"ELEMENT_SET_NO":999,"REV_AT_EPOCH":63287,"BSTAR":0.0040001,"MEAN_MOTION_DOT":0.00060878,"MEAN_MOTION_DDOT":0}]
